NORAD_CAT_ID,OBJECT_NAME,OBJECT_TYPE,EPOCH,MEAN_MOTION,ECCENTRICITY,INCLINATION,RA_OF_ASC_NODE,ARG_OF_PERICENTER,MEAN_ANOMALY,BSTAR,MEAN_MOTION_DOT,MEAN_MOTION_DDOT,TLE_LINE0,TLE_LINE1,TLE_LINE2,SEMIMAJOR_AXIS,PERIOD,APOGEE,PERIGEE,DECAYED
51755.0,STARLINK-3460,PAYLOAD,2022-10-23 19:59:56,15.08843123,0.0002142,53.2176,83.6351,37.7339,322.3803,0.00013307,1.83e-05,0.0,0 STARLINK-3460,1 51755U 22016AT  22296.83329505  .00001830  00000-0  13307-3 0  9999,2 51755  53.2176  83.6351 0002142  37.7339 322.3803 15.08843123 37585,6917.871,95.437,541.2180000000002,538.254,0.0
51755.0,STARLINK-3460,PAYLOAD,2022-10-24 11:53:48,15.08832771,0.0002061,53.218,80.6613,32.9054,327.2066,-3.8915e-05,-9.07e-06,0.0,0 STARLINK-3460,1 51755U 22016AT  22297.49570449 -.00000907  00000-0 -38915-4 0  9996,2 51755  53.2180  80.6613 0002061  32.9054 327.2066 15.08832771 38795,6917.901999999999,95.438,541.193,538.342,0.0
51755.0,STARLINK-3460,PAYLOAD,2022-10-24 15:04:35,15.08829166,0.0002085999999999,53.2174,80.0658,41.892,318.2231,-7.154399999999999e-05,-1.426e-05,0.0,0 STARLINK-3460,1 51755U 22016AT  22297.62818904 -.00001426  00000-0 -71544-4 0  9994,2 51755  53.2174  80.0658 0002086  41.8920 318.2231 15.08829166 37707,6917.9140000000025,95.438,541.222,538.335,0.0
51755.0,STARLINK-3460,PAYLOAD,2022-10-25 02:12:17,15.08826074,0.0002163,53.2181,77.9857,37.3082,322.806,-6.9284e-05,-1.39e-05,0.0,0 STARLINK-3460,1 51755U 22016AT  22298.09187376 -.00001390  00000-0 -69284-4 0  9996,2 51755  53.2181  77.9857 0002163  37.3082 322.8060 15.08826074 38882,6917.9230000000025,95.438,541.284,538.2919999999998,0.0
51755.0,STARLINK-3460,PAYLOAD,2022-10-25 11:44:36,15.08830349,0.0002128,53.2181,76.2014,37.4212,322.6928,-2.1803e-05,-6.35e-06,0.0,0 STARLINK-3460,1 51755U 22016AT  22298.48931295 -.00000635  00000-0 -21803-4 0  9992,2 51755  53.2181  76.2014 0002128  37.4212 322.6928 15.08830349 37831,6917.91,95.438,541.247,538.303,0.0
51755.0,STARLINK-3460,PAYLOAD,2022-10-26 03:38:27,15.0883924,0.0002239,53.2182,73.2287,39.0881,321.0273,2.062e-06,-2.56e-06,0.0,0 STARLINK-3460,1 51755U 22016AT  22299.15171000 -.00000256  00000-0  20620-5 0  9992,2 51755  53.2182  73.2287 0002239  39.0881 321.0273 15.08839240 39044,6917.8830000000025,95.438,541.297,538.1990000000002,0.0
51755.0,STARLINK-3460,PAYLOAD,2022-10-26 11:35:23,15.08841642,0.0002309,53.218,71.7411,38.7451,321.3706,9.9751e-05,1.3e-05,0.0,0 STARLINK-3460,1 51755U 22016AT  22299.48290707  .00001300  00000-0  99751-4 0  9994,2 51755  53.2180  71.7411 0002309  38.7451 321.3706 15.08841642 37985,6917.875,95.437,541.3380000000002,538.143,0.0
51755.0,STARLINK-3460,PAYLOAD,2022-10-26 16:21:32,15.08845631,0.0002284,53.2174,70.8489,39.6498,320.4661,0.00015934,2.249e-05,0.0,0 STARLINK-3460,1 51755U 22016AT  22299.68162659  .00002249  00000-0  15934-3 0  9993,2 51755  53.2174  70.8489 0002284  39.6498 320.4661 15.08845631 38013,6917.863,95.437,541.308,538.148,0.0
51755.0,STARLINK-3460,PAYLOAD,2022-10-27 03:29:14,15.08854065,0.0002322,53.2177,68.7672,38.9107,321.2051,0.00044586,6.818e-05,0.0,0 STARLINK-3460,1 51755U 22016AT  22300.14530474  .00006818  00000-0  44586-3 0  9992,2 51755  53.2177  68.7672 0002322  38.9107 321.2051 15.08854065 39191,6917.837,95.437,541.309,538.096,0.0
51755.0,STARLINK-3460,PAYLOAD,2022-10-27 11:26:09,15.08854798,0.0002428,53.2173,67.28,40.4635,319.6537,0.00019738,2.856e-05,0.0,0 STARLINK-3460,1 51755U 22016AT  22300.47650303  .00002856  00000-0  19738-3 0  9991,2 51755  53.2173  67.2800 0002428  40.4635 319.6537 15.08854798 38131,6917.835,95.437,541.38,538.021,0.0
51755.0,STARLINK-3460,PAYLOAD,2022-10-28 04:55:23,15.08866177,0.0002189999999999,53.2178,64.0103,34.4013,325.7121,0.00040558,6.177e-05,0.0,0 STARLINK-3460,1 51755U 22016AT  22301.20513150  .00006177  00000-0  40558-3 0  9995,2 51755  53.2178  64.0103 0002190  34.4013 325.7121 15.08866177 39352,6917.8,95.436,541.18,538.15,0.0
51755.0,STARLINK-3460,PAYLOAD,2022-10-28 12:52:18,15.08859386,0.0002335999999999,53.2175,62.5226,36.5595,323.5556,0.00018467,2.654e-05,0.0,0 STARLINK-3460,1 51755U 22016AT  22301.53632965  .00002654  00000-0  18467-3 0  9997,2 51755  53.2175  62.5226 0002336  36.5595 323.5556 15.08859386 38292,6917.821,95.436,541.302,538.07,0.0
51755.0,STARLINK-3460,PAYLOAD,2022-10-28 17:38:28,15.0884762,0.0002364,53.2174,61.6307,42.7008,317.4167,-7.248899999999999e-05,-1.442e-05,0.0,0 STARLINK-3460,1 51755U 22016AT  22301.73505381 -.00001442  00000-0 -72489-4 0  9991,2 51755  53.2174  61.6307 0002364  42.7008 317.4167 15.08847620 38322,6917.857,95.437,541.357,538.087,0.0
51755.0,STARLINK-3460,PAYLOAD,2022-10-29 07:56:56,15.08846635,0.0002269,53.2182,58.9545,37.5124,322.6026,3.6415e-05,2.91e-06,0.0,0 STARLINK-3460,1 51755U 22016AT  22302.33121244  .00000291  00000-0  36415-4 0  9998,2 51755  53.2182  58.9545 0002269  37.5124 322.6026 15.08846635 38416,6917.86,95.437,541.295,538.155,0.0
51755.0,STARLINK-3460,PAYLOAD,2022-10-29 17:29:15,15.08845743,0.0002139,53.2187,57.1681,37.6723,322.4418,9.7889e-05,1.27e-05,0.0,0 STARLINK-3460,1 51755U 22016AT  22302.72865066  .00001270  00000-0  97889-4 0  9998,2 51755  53.2187  57.1681 0002139  37.6723 322.4418 15.08845743 38473,6917.863,95.437,541.2080000000002,538.248,0.0
51755.0,STARLINK-3460,PAYLOAD,2022-10-30 10:58:29,15.0885609,0.0002476,53.2176,53.8988,36.61,323.5061,0.00060063,9.288e-05,0.0,0 STARLINK-3460,1 51755U 22016AT  22303.45728914  .00009288  00000-0  60063-3 0  9999,2 51755  53.2176  53.8988 0002476  36.6100 323.5061 15.08856090 38581,6917.831,95.437,541.409,537.9830000000002,0.0
51755.0,STARLINK-3460,PAYLOAD,2022-10-30 17:20:02,15.08845206,0.000252,53.2186,52.7106,29.2954,330.8179,0.00026172,3.88e-05,0.0,0 STARLINK-3460,1 51755U 22016AT  22303.72225089  .00003880  00000-0  26172-3 0  9999,2 51755  53.2186  52.7106 0002520  29.2954 330.8179 15.08845206 38620,6917.864000000001,95.437,541.4730000000002,537.986,0.0
51755.0,STARLINK-3460,PAYLOAD,2022-10-31 10:49:17,15.08827981,0.0002313,53.2183,49.4389,36.4269,323.688,-7.740899999999999e-05,-1.52e-05,0.0,0 STARLINK-3460,1 51755U 22016AT  22304.45090084 -.00001520  00000-0 -77409-4 0  9996,2 51755  53.2183  49.4389 0002313  36.4269 323.6880 15.08827981 38733,6917.917,95.438,541.382,538.182,0.0
51755.0,STARLINK-3460,PAYLOAD,2022-10-31 14:00:04,15.08829819,0.0002419,53.2184,48.8447,33.8381,326.2765,-2.8338e-05,-7.39e-06,0.0,0 STARLINK-3460,1 51755U 22016AT  22304.58338076 -.00000739  00000-0 -28338-4 0  9994,2 51755  53.2184  48.8447 0002419  33.8381 326.2765 15.08829819 38750,6917.9119999999975,95.438,541.45,538.1030000000002,0.0
51755.0,STARLINK-3460,PAYLOAD,2022-11-01 12:15:27,15.08842162,0.0002435999999999,53.2186,44.6822,33.8324,326.2824,0.00010227,1.34e-05,0.0,0 STARLINK-3460,1 51755U 22016AT  22305.51074014  .00001340  00000-0  10227-3 0  9991,2 51755  53.2186  44.6822 0002436  33.8324 326.2824 15.08842162 40002,6917.874,95.437,541.424,538.054,0.0
51755.0,STARLINK-3460,PAYLOAD,2022-11-02 04:09:19,15.08833435,0.0002478,53.2185,41.7098,29.4827,330.6305,0.00013455,1.853e-05,0.0,0 STARLINK-3460,1 51755U 22016AT  22306.17314729  .00001853  00000-0  13455-3 0  9999,2 51755  53.2185  41.7098 0002478  29.4827 330.6305 15.08833435 40106,6917.9,95.438,541.48,538.0509999999998,0.0
51755.0,STARLINK-3460,PAYLOAD,2022-11-02 13:41:38,15.08832993,0.0002029,53.2208,39.9214,33.8968,326.2153,0.0001916,2.762e-05,0.0,0 STARLINK-3460,1 51755U 22016AT  22306.57058697  .00002762  00000-0  19160-3 0  9991,2 51755  53.2208  39.9214 0002029  33.8968 326.2153 15.08832993 39050,6917.901999999999,95.438,541.17,538.363,0.0
51755.0,STARLINK-3460,PAYLOAD,2022-11-03 11:57:02,15.08845611,0.0002573,53.2183,35.7616,31.3794,328.7352,0.00014264,1.983e-05,0.0,0 STARLINK-3460,1 51755U 22016AT  22307.49794605  .00001983  00000-0  14264-3 0  9993,2 51755  53.2183  35.7616 0002573  31.3794 328.7352 15.08845611 40305,6917.863,95.437,541.508,537.948,0.0
51755.0,STARLINK-3460,PAYLOAD,2022-11-03 15:07:48,15.08849636,0.000254,53.2182,35.1669,30.997,329.1171,0.00019013,2.7399999999999995e-05,0.0,0 STARLINK-3460,1 51755U 22016AT  22307.63042380  .00002740  00000-0  19013-3 0  9994,2 51755  53.2182  35.1669 0002540  30.9970 329.1171 15.08849636 39214,6917.851,95.437,541.4730000000002,537.9590000000002,0.0
51755.0,STARLINK-3460,PAYLOAD,2022-11-04 00:40:06,15.08863976,0.0002431,53.2183,33.3821,31.7168,328.3971,0.00045876,7.025e-05,0.0,0 STARLINK-3460,1 51755U 22016AT  22308.02785388  .00007025  00000-0  45876-3 0  9997,2 51755  53.2183  33.3821 0002431  31.7168 328.3971 15.08863976 40384,6917.807,95.436,541.354,537.99,0.0
51755.0,STARLINK-3460,PAYLOAD,2022-11-04 10:12:25,15.08852987,0.0002077,53.2181,31.596,35.9001,324.2131,0.00022117,3.235e-05,0.0,0 STARLINK-3460,1 51755U 22016AT  22308.42529373  .00003235  00000-0  22117-3 0  9993,2 51755  53.2181  31.5960 0002077  35.9001 324.2131 15.08852987 40444,6917.840999999999,95.437,541.143,538.269,0.0
51755.0,STARLINK-3460,PAYLOAD,2022-11-04 14:58:35,15.08844057,0.0002376,53.2186,30.7053,29.923,330.1898,5.5593e-05,5.97e-06,0.0,0 STARLINK-3460,1 51755U 22016AT  22308.62401874  .00000597  00000-0  55593-4 0  9993,2 51755  53.2186  30.7053 0002376  29.9230 330.1898 15.08844057 40470,6917.868,95.437,541.377,538.089,0.0
51755.0,STARLINK-3460,PAYLOAD,2022-11-05 11:38:39,15.08801333,0.0002412,53.2191,26.8413,22.2624,337.8472,-0.00027258,-4.619e-05,0.0,0 STARLINK-3460,1 51755U 22016AT  22309.48517687 -.00004619  00000-0 -27258-3 0  9995,2 51755  53.2191  26.8413 0002412  22.2624 337.8472 15.08801333 40603,6917.999,95.44,541.5319999999998,538.195,0.0
51755.0,STARLINK-3460,PAYLOAD,2022-11-05 14:49:24,15.08813232,0.0002212,53.2204,26.2462,25.9956,334.1147,-0.00026999,-4.58e-05,0.0,0 STARLINK-3460,1 51755U 22016AT  22309.61764985 -.00004580  00000-0 -26999-3 0  9993,2 51755  53.2204  26.2462 0002212  25.9956 334.1147 15.08813232 40624,6917.962,95.439,541.357,538.297,0.0
